GAOFEN-3 03             
1 52200U 22035A   26195.21770179  .00000079  00000+0  37199-4 0  9996
2 52200  98.4063 203.4058 0001750  89.1980 270.9410 14.42218335224746
DAQI-1                  
1 52257U 22039A   26195.19055931  .00000263  00000+0  67504-4 0  9999
2 52257  98.1482 133.4854 0003863 150.1434 209.9986 14.57692798225876
BRO-6                   
1 52422U 22047AE  26195.22583473  .00030798  00000+0  50290-3 0  9992
2 52422  97.3396 286.8367 0002877 316.6720  43.4306 15.52517212235341
JILIN-1 GAOFEN 3D27     
1 52444U 22048B   26195.15424035  .00138283  00000+0  64854-3 0  9996
2 52444  97.5728 311.6885 0005150 246.4654 113.6073 15.82803643233732
JILIN-1 GAOFEN 3D28     
1 52445U 22048C   26195.15113200  .00194855  00000+0  71707-3 0  9998
2 52445  97.5666 311.9793 0004941 244.7534 115.3225 15.87744235233790
VIGORIDE-3              
1 52760U 22057AE  26195.01104525  .00003089  00000+0  11750-3 0  9993
2 52760  97.6635 335.7056 0008985  38.4756 321.7122 15.27542441229253
ION SCV-006             
1 52761U 22057AF  26194.96806424  .00007353  00000+0  15245-3 0  9995
2 52761  97.6126 344.8904 0016914  21.9415 338.2554 15.45903058230251
SHERPA-AC1              
1 52763U 22057AH  26194.96441153  .00004448  00000+0  12680-3 0  9993
2 52763  97.6712 345.3179 0007315   8.1149 352.0211 15.36620975229818
OMNI-L2                 
1 52771U 22057AR  26195.14057819  .00000659  00000+0  90210-4 0  9991
2 52771  97.4703 255.6867 0005584 224.6346 135.4419 14.81436532224385
STEP CUBE LAB-II        
1 52897U 22065D   26195.21367959  .00000371  00000+0  81172-4 0  9994
2 52897  98.2254 339.0370 0007440 306.0330  54.0182 14.63341995215450
RANDEV                  
1 52898U 22065E   26195.13923998  .00000293  00000+0  65437-4 0  9996
2 52898  98.2241 339.3266 0006791 307.0970  52.9610 14.63730226215196
SNUGLITE-II             
1 52899U 22065F   26194.88446559  .00000444  00000+0  93251-4 0  9994
2 52899  98.2232 339.6727 0006291 305.5443  54.5173 14.64393006214907
MIMAN                   
1 52900U 22065G   26194.94784500  .00000251  00000+0  59653-4 0  9999
2 52900  98.2293 337.3004 0006473 308.3913  51.6706 14.61871027214355
STARLINK-4362           
1 53043U 22077A   26195.04833808  .00000203  00000+0  17933-4 0  9991
2 53043  97.2851  12.5616 0001250  98.1320 262.0050 15.05656274219920
LARES-2                 
1 53105U 22080A   26192.27283510 -.00000016  00000+0  00000+0 0  9990
2 53105  70.1562 297.0691 0005170 331.4390  28.5953  6.38965058 93203
GREENCUBE (IO-117)      
1 53109U 22080E   26193.70867104 -.00000003  00000+0  00000+0 0  9996
2 53109  70.1415 289.3709 0009030 284.1311  75.8345  6.42583319 93700
STARLINK-4410           
1 53204U 22084R   26195.16668980 -.00279534  00000+0 -65088-2 0  9997
2 53204  97.6003 257.2077 0001287  82.5401   9.8540 15.43325548  5897
COSMOS 2558             
1 53323U 22089A   26195.09422485  .00111504  00000+0  55874-3 0  9997
2 53323  97.2254 300.3748 0004015 230.2170 129.8746 15.81451466222078
TECMS                   
1 53346U 22090A   26195.19080932  .00002105  00000+0  97311-4 0  9991
2 53346  97.3128 262.5339 0005537  88.0266 272.1604 15.21229688218910
DONGPO 02               
1 53452U 22098J   26195.19805066  .00118190  00000+0  60617-3 0  9990
2 53452  97.5547 328.8631 0004573 217.2276 142.8675 15.80921052219058
DONGPO 01               
1 53453U 22098K   26195.16869856  .00100528  00000+0  59161-3 0  9993
2 53453  97.5621 329.2725 0002964 209.6083 150.5015 15.77922904219006
STARLINK-4400           
1 53468U 22099D   26194.89466308 -.00000177  00000+0 -83515-5 0  9997
2 53468  97.2851 312.4961 0001515 127.0914 233.0452 15.05654736214965
STARLINK-4621           
1 53676U 22105AE  26195.16326701 -.00000374  00000+0 -22006-4 0  9995
2 53676  97.2833  72.7671 0001655  93.1848 266.9569 15.05656968212268
SHERPA-LTC2             
1 53754U 22107BG  26195.11408332  .00002160  00000+0  12267-3 0  9990
2 53754  53.2369 106.3270 0392826 301.6882  54.6349 14.69913433206508
CENTISPACE-1 S3         
1 53757U 22108A   26195.15692497  .00000130  00000+0  64374-4 0  9997
2 53757  53.5338 303.7357 0010731  62.2328 297.9734 14.61282623205473
CENTISPACE-1 S4         
1 53758U 22108B   26195.12856265  .00000202  00000+0  77761-4 0  9994
2 53758  53.5313 301.2425 0010016  51.5933 308.5941 14.61971391205505
BLUEWALKER-3            
1 53807U 22111AL  26194.49042534  .00003917  00000+0  11145-3 0  9997
2 53807  53.2291 270.4558 0004570 258.6402 101.4090 15.38596562214250
YUNHAI-1 03             
1 53877U 22115A   26195.21434000  .00000223  00000+0  97981-4 0  9992
2 53877  98.5543 193.0195 0004216 342.6238  17.4801 14.32736112199386
CENTISPACE-1 S5         
1 54020U 22126A   26195.20749681  .00000386  00000+0  11136-3 0  9995
2 54020  54.9989 104.8295 0014426 122.5748 237.6641 14.63055654200990
CENTISPACE-1 S6         
1 54021U 22126B   26195.21421862  .00000280  00000+0  92067-4 0  9991
2 54021  54.9991 106.7947 0016222 123.7192 236.5350 14.62315867200956
