OBJECT_NAME,OBJECT_ID,EPOCH,MEAN_MOTION,ECCENTRICITY,INCLINATION,RA_OF_ASC_NODE,ARG_OF_PERICENTER,MEAN_ANOMALY,EPHEMERIS_TYPE,CLASSIFICATION_TYPE,NORAD_CAT_ID,ELEMENT_SET_NO,REV_AT_EPOCH,BSTAR,MEAN_MOTION_DOT,MEAN_MOTION_DDOT
GAOFEN-3 03,2022-035A,2026-07-14T05:13:29.434656,14.42218335,.000175,98.4063,203.4058,89.1980,270.9410,0,U,52200,999,22474,.37199E-4,.79E-6,0
DAQI-1,2022-039A,2026-07-14T04:34:24.324384,14.57692798,.0003863,98.1482,133.4854,150.1434,209.9986,0,U,52257,999,22587,.67504E-4,.263E-5,0
BRO-6,2022-047AE,2026-07-14T05:25:12.120672,15.52517212,.0002877,97.3396,286.8367,316.6720,43.4306,0,U,52422,999,23534,.5029E-3,.30798E-3,0
JILIN-1 GAOFEN 3D27,2022-048B,2026-07-14T03:42:06.366240,15.82803643,.000515,97.5728,311.6885,246.4654,113.6073,0,U,52444,999,23373,.64854E-3,.138283E-2,0
JILIN-1 GAOFEN 3D28,2022-048C,2026-07-14T03:37:37.804800,15.87744235,.0004941,97.5666,311.9793,244.7534,115.3225,0,U,52445,999,23379,.71707E-3,.194855E-2,0
VIGORIDE-3,2022-057AE,2026-07-14T00:15:54.309600,15.27542441,.0008985,97.6635,335.7056,38.4756,321.7122,0,U,52760,999,22925,.1175E-3,.3089E-4,0
ION SCV-006,2022-057AF,2026-07-13T23:14:00.750336,15.45903058,.0016914,97.6126,344.8904,21.9415,338.2554,0,U,52761,999,23025,.15245E-3,.7353E-4,0
SHERPA-AC1,2022-057AH,2026-07-13T23:08:45.156192,15.36620975,.0007315,97.6712,345.3179,8.1149,352.0211,0,U,52763,999,22981,.1268E-3,.4448E-4,0
OMNI-L2,2022-057AR,2026-07-14T03:22:25.955616,14.81436532,.0005584,97.4703,255.6867,224.6346,135.4419,0,U,52771,999,22438,.9021E-4,.659E-5,0
STEP CUBE LAB-II,2022-065D,2026-07-14T05:07:41.916576,14.63341995,.000744,98.2254,339.0370,306.0330,54.0182,0,U,52897,999,21545,.81172E-4,.371E-5,0
RANDEV,2022-065E,2026-07-14T03:20:30.334272,14.63730226,.0006791,98.2241,339.3266,307.0970,52.9610,0,U,52898,999,21519,.65437E-4,.293E-5,0
SNUGLITE-II,2022-065F,2026-07-13T21:13:37.826976,14.64393006,.0006291,98.2232,339.6727,305.5443,54.5173,0,U,52899,999,21490,.93251E-4,.444E-5,0
MIMAN,2022-065G,2026-07-13T22:44:53.808000,14.61871027,.0006473,98.2293,337.3004,308.3913,51.6706,0,U,52900,999,21435,.59653E-4,.251E-5,0
STARLINK-4362,2022-077A,2026-07-14T01:09:36.410112,15.05656274,.000125,97.2851,12.5616,98.1320,262.0050,0,U,53043,999,21992,.17933E-4,.203E-5,0
LARES-2,2022-080A,2026-07-11T06:32:52.952640,6.38965058,.00051703,70.1562,297.0691,331.4390,28.5953,0,U,53105,999,9320,0,-.16E-6,0
GREENCUBE (IO-117),2022-080E,2026-07-12T17:00:29.177856,6.42583319,.00090302,70.1415,289.3709,284.1311,75.8345,0,U,53109,999,9370,0,-.3E-7,0
STARLINK-4410,2022-084R,2026-07-14T04:00:01.998720,15.43325548,.0001287,97.6003,257.2077,82.5401,9.8540,0,U,53204,999,589,-.65088E-2,-.279534E-2,0
COSMOS 2558,2022-089A,2026-07-14T02:15:41.027040,15.81451466,.0004015,97.2254,300.3748,230.2170,129.8746,0,U,53323,999,22207,.55874E-3,.111504E-2,0
TECMS,2022-090A,2026-07-14T04:34:45.925248,15.21229688,.0005537,97.3128,262.5339,88.0266,272.1604,0,U,53346,999,21891,.97311E-4,.2105E-4,0
DONGPO 02,2022-098J,2026-07-14T04:45:11.577024,15.80921052,.0004573,97.5547,328.8631,217.2276,142.8675,0,U,53452,999,21905,.60617E-3,.11819E-2,0
DONGPO 01,2022-098K,2026-07-14T04:02:55.555584,15.77922904,.0002964,97.5621,329.2725,209.6083,150.5015,0,U,53453,999,21900,.59161E-3,.100528E-2,0
STARLINK-4400,2022-099D,2026-07-13T21:28:18.890112,15.05654736,.0001515,97.2851,312.4961,127.0914,233.0452,0,U,53468,999,21496,-.83515E-5,-.177E-5,0
STARLINK-4621,2022-105AE,2026-07-14T03:55:06.269664,15.05656968,.0001655,97.2833,72.7671,93.1848,266.9569,0,U,53676,999,21226,-.22006E-4,-.374E-5,0
SHERPA-LTC2,2022-107BG,2026-07-14T02:44:16.798848,14.69913433,.0392826,53.2369,106.3270,301.6882,54.6349,0,U,53754,999,20650,.12267E-3,.216E-4,0
CENTISPACE-1 S3,2022-108A,2026-07-14T03:45:58.317408,14.61282623,.0010731,53.5338,303.7357,62.2328,297.9734,0,U,53757,999,20547,.64374E-4,.13E-5,0
CENTISPACE-1 S4,2022-108B,2026-07-14T03:05:07.812960,14.61971391,.0010016,53.5313,301.2425,51.5933,308.5941,0,U,53758,999,20550,.77761E-4,.202E-5,0
BLUEWALKER-3,2022-111AL,2026-07-13T11:46:12.749376,15.38596562,.00045701,53.2291,270.4558,258.6402,101.4090,0,U,53807,999,21425,.11145255E-3,.3917E-4,0
YUNHAI-1 03,2022-115A,2026-07-14T05:08:38.976000,14.32736112,.0004216,98.5543,193.0195,342.6238,17.4801,0,U,53877,999,19938,.97981E-4,.223E-5,0
CENTISPACE-1 S5,2022-126A,2026-07-14T04:58:47.724384,14.63055654,.0014426,54.9989,104.8295,122.5748,237.6641,0,U,54020,999,20099,.11136E-3,.386E-5,0
CENTISPACE-1 S6,2022-126B,2026-07-14T05:08:28.488768,14.62315867,.0016222,54.9991,106.7947,123.7192,236.5350,0,U,54021,999,20095,.92067E-4,.28E-5,0
